[{"OBJECT_NAME":"STARLINK-5922","OBJECT_ID":"2023-037M","EPOCH":"2026-03-09T22:05:41.261280","MEAN_MOTION":14.9833624,"ECCENTRICITY":0.00029721,"INCLINATION":69.9994,"RA_OF_ASC_NODE":303.7996,"ARG_OF_PERICENTER":266.5752,"MEAN_ANOMALY":93.5067,"EPHEMERIS_TYPE":0,"CLASSIFICATION_TYPE":"U","NORAD_CAT_ID":55925,"ELEMENT_SET_NO":999,"REV_AT_EPOCH":16352,"BSTAR":-8.9701454e-5,"MEAN_MOTION_DOT":-1.163e-5,"MEAN_MOTION_DDOT":0},{"OBJECT_NAME":"FENGYUN 1C DEB","OBJECT_ID":"1999-025DH","EPOCH":"2026-03-09T22:27:36.392832","MEAN_MOTION":14.64646374,"ECCENTRICITY":0.01796987,"INCLINATION":98.0552,"RA_OF_ASC_NODE":80.5984,"ARG_OF_PERICENTER":220.1282,"MEAN_ANOMALY":138.6535,"EPHEMERIS_TYPE":0,"CLASSIFICATION_TYPE":"U","NORAD_CAT_ID":29815,"ELEMENT_SET_NO":999,"REV_AT_EPOCH":1127,"BSTAR":0.000529441,"MEAN_MOTION_DOT":3.51e-5,"MEAN_MOTION_DDOT":0}]
